[{"OBJECT_NAME":"STARLINK-4029","OBJECT_ID":"2022-053AF","EPOCH":"2026-03-09T12:43:31.433088","MEAN_MOTION":15.08851341,"ECCENTRICITY":9.716e-5,"INCLINATION":53.2172,"RA_OF_ASC_NODE":144.8387,"ARG_OF_PERICENTER":77.1563,"MEAN_ANOMALY":282.9538,"EPHEMERIS_TYPE":0,"CLASSIFICATION_TYPE":"U","NORAD_CAT_ID":52685,"ELEMENT_SET_NO":999,"REV_AT_EPOCH":21109,"BSTAR":-0.00013095798,"MEAN_MOTION_DOT":-2.372e-5,"MEAN_MOTION_DDOT":0},{"OBJECT_NAME":"LEMUR-2-STELLA","OBJECT_ID":"2024-149BT","EPOCH":"2026-03-09T17:26:15.951264","MEAN_MOTION":15.09464064,"ECCENTRICITY":0.0001299,"INCLINATION":97.6764,"RA_OF_ASC_NODE":150.9122,"ARG_OF_PERICENTER":95.1117,"MEAN_ANOMALY":265.026,"EPHEMERIS_TYPE":0,"CLASSIFICATION_TYPE":"U","NORAD_CAT_ID":60533,"ELEMENT_SET_NO":999,"REV_AT_EPOCH":8548,"BSTAR":0.00085776432,"MEAN_MOTION_DOT":0.00013685,"MEAN_MOTION_DDOT":0}]
