STARLINK-4029           
1 52685U 22053AF  26068.53022492 -.00002372  00000+0 -13096-3 0  9994
2 52685  53.2172 144.8387 0000971  77.1563 282.9538 15.08851341211095
LEMUR-2-STELLA          
1 60533U 24149BT  26068.72657350  .00013685  00000+0  85776-3 0  9992
2 60533  97.6764 150.9122 0001299  95.1117 265.0260 15.09464064 85488
